STARLINK-2657           
1 48655U 21044T   25331.09992811 -.00001925  00000+0 -11035-3 0  9993
2 48655  53.0521 222.1601 0002114 100.6651 259.4576 15.06392475248247
STARLINK-2701           
1 48656U 21044U   25330.89719605  .00000931  00000+0  81400-4 0  9997
2 48656  53.0525 223.0676 0001839  91.9887 268.1313 15.06403677248210
STARLINK-2734           
1 48657U 21044V   25330.99202415  .00006311  00000+0  44196-3 0  9993
2 48657  53.0546 222.2835 0001659 108.3098 251.8072 15.06418679248230
STARLINK-2647           
1 48658U 21044W   25330.95617166  .00000397  00000+0  45567-4 0  9995
2 48658  53.0533 222.8064 0001414 107.0597 253.0547 15.06399383248226
STARLINK-2717           
1 48659U 21044X   25331.08517988 -.00001797  00000+0 -10176-3 0  9996
2 48659  53.0527 222.2292 0001475  84.2849 275.8308 15.06394166248243
STARLINK-2726           
1 48662U 21044AA  25331.07873000 -.00000799  00000+0 -34781-4 0  9999
2 48662  53.0541 212.2580 0001541 102.3423 257.7739 15.06392303248389
STARLINK-2667           
1 48663U 21044AB  25331.07504238  .00004995  00000+0  35406-3 0  9998
2 48663  53.0523 212.2721 0001482  97.0808 263.0349 15.06394698248384
STARLINK-2666           
1 48666U 21044AE  25331.09721040 -.00002933  00000+0 -17809-3 0  9994
2 48666  53.0537 212.6434 0001340  79.7296 280.3844 15.06397633248371
STARLINK-2735           
1 48667U 21044AF  25331.06766968  .00000396  00000+0  45458-4 0  9991
2 48667  53.0523 212.3065 0001414  88.7044 271.4107 15.06397854248386
STARLINK-2738           
1 48668U 21044AG  25331.06398417 -.00000743  00000+0 -30989-4 0  9993
2 48668  53.0513 212.3195 0001465 104.7513 255.3639 15.06395694248387
STARLINK-2707           
1 48669U 21044AH  25330.99395158 -.00002886  00000+0 -17492-3 0  9997
2 48669  53.0526 212.6397 0001373  85.7040 274.4106 15.06395433248360
STARLINK-2763           
1 48670U 21044AJ  25331.05660730 -.00001639  00000+0 -91166-4 0  9994
2 48670  53.0535 212.3569 0001575  88.9962 271.1207 15.06388384248376
STARLINK-2745           
1 48671U 21044AK  25331.08244344 -.00000899  00000+0 -41445-4 0  9999
2 48671  53.0514 212.5493 0001393  97.4732 262.6415 15.06391255248377
STARLINK-2705           
1 48672U 21044AL  25331.04923393 -.00004331  00000+0 -27209-3 0  9990
2 48672  53.0534 212.3892 0001463  91.7796 268.3360 15.06394995248372
STARLINK-2711           
1 48673U 21044AM  25331.04555051 -.00004022  00000+0 -25134-3 0  9995
2 48673  53.0527 212.4036 0001443  88.9078 271.2076 15.06393181248378
STARLINK-2712           
1 48674U 21044AN  25331.11928484 -.00003099  00000+0 -18932-3 0  9999
2 48674  53.0536 212.1921 0001261  91.4913 268.6221 15.06390609248389
