[{"OBJECT_NAME":"STARLINK-2657","OBJECT_ID":"2021-044T","EPOCH":"2025-11-27T02:23:53.788704","MEAN_MOTION":15.06392475,"ECCENTRICITY":0.00021146,"INCLINATION":53.0521,"RA_OF_ASC_NODE":222.1601,"ARG_OF_PERICENTER":100.6651,"MEAN_ANOMALY":259.4576,"EPHEMERIS_TYPE":0,"CLASSIFICATION_TYPE":"U","NORAD_CAT_ID":48655,"ELEMENT_SET_NO":999,"REV_AT_EPOCH":24824,"BSTAR":-0.00011035195,"MEAN_MOTION_DOT":-1.925e-5,"MEAN_MOTION_DDOT":0},{"OBJECT_NAME":"STARLINK-2701","OBJECT_ID":"2021-044U","EPOCH":"2025-11-26T21:31:57.738720","MEAN_MOTION":15.06403677,"ECCENTRICITY":0.00018391,"INCLINATION":53.0525,"RA_OF_ASC_NODE":223.0676,"ARG_OF_PERICENTER":91.9887,"MEAN_ANOMALY":268.1313,"EPHEMERIS_TYPE":0,"CLASSIFICATION_TYPE":"U","NORAD_CAT_ID":48656,"ELEMENT_SET_NO":999,"REV_AT_EPOCH":24821,"BSTAR":8.1399549e-5,"MEAN_MOTION_DOT":9.31e-6,"MEAN_MOTION_DDOT":0},{"OBJECT_NAME":"STARLINK-2734","OBJECT_ID":"2021-044V","EPOCH":"2025-11-26T23:48:30.886560","MEAN_MOTION":15.06418679,"ECCENTRICITY":0.00016598,"INCLINATION":53.0546,"RA_OF_ASC_NODE":222.2835,"ARG_OF_PERICENTER":108.3098,"MEAN_ANOMALY":251.8072,"EPHEMERIS_TYPE":0,"CLASSIFICATION_TYPE":"U","NORAD_CAT_ID":48657,"ELEMENT_SET_NO":999,"REV_AT_EPOCH":24823,"BSTAR":0.00044196148,"MEAN_MOTION_DOT":6.311e-5,"MEAN_MOTION_DDOT":0},{"OBJECT_NAME":"STARLINK-2647","OBJECT_ID":"2021-044W","EPOCH":"2025-11-26T22:56:53.231424","MEAN_MOTION":15.06399383,"ECCENTRICITY":0.00014147,"INCLINATION":53.0533,"RA_OF_ASC_NODE":222.8064,"ARG_OF_PERICENTER":107.0597,"MEAN_ANOMALY":253.0547,"EPHEMERIS_TYPE":0,"CLASSIFICATION_TYPE":"U","NORAD_CAT_ID":48658,"ELEMENT_SET_NO":999,"REV_AT_EPOCH":24822,"BSTAR":4.5567261e-5,"MEAN_MOTION_DOT":3.97e-6,"MEAN_MOTION_DDOT":0},{"OBJECT_NAME":"STARLINK-2717","OBJECT_ID":"2021-044X","EPOCH":"2025-11-27T02:02:39.541632","MEAN_MOTION":15.06394166,"ECCENTRICITY":0.00014757,"INCLINATION":53.0527,"RA_OF_ASC_NODE":222.2292,"ARG_OF_PERICENTER":84.2849,"MEAN_ANOMALY":275.8308,"EPHEMERIS_TYPE":0,"CLASSIFICATION_TYPE":"U","NORAD_CAT_ID":48659,"ELEMENT_SET_NO":999,"REV_AT_EPOCH":24824,"BSTAR":-0.00010175836,"MEAN_MOTION_DOT":-1.797e-5,"MEAN_MOTION_DDOT":0},{"OBJECT_NAME":"STARLINK-2726","OBJECT_ID":"2021-044AA","EPOCH":"2025-11-27T01:53:22.272000","MEAN_MOTION":15.06392303,"ECCENTRICITY":0.00015417,"INCLINATION":53.0541,"RA_OF_ASC_NODE":212.258,"ARG_OF_PERICENTER":102.3423,"MEAN_ANOMALY":257.7739,"EPHEMERIS_TYPE":0,"CLASSIFICATION_TYPE":"U","NORAD_CAT_ID":48662,"ELEMENT_SET_NO":999,"REV_AT_EPOCH":24838,"BSTAR":-3.4781248e-5,"MEAN_MOTION_DOT":-7.99e-6,"MEAN_MOTION_DDOT":0},{"OBJECT_NAME":"STARLINK-2667","OBJECT_ID":"2021-044AB","EPOCH":"2025-11-27T01:48:03.661632","MEAN_MOTION":15.06394698,"ECCENTRICITY":0.00014825,"INCLINATION":53.0523,"RA_OF_ASC_NODE":212.2721,"ARG_OF_PERICENTER":97.0808,"MEAN_ANOMALY":263.0349,"EPHEMERIS_TYPE":0,"CLASSIFICATION_TYPE":"U","NORAD_CAT_ID":48663,"ELEMENT_SET_NO":999,"REV_AT_EPOCH":24838,"BSTAR":0.00035406216,"MEAN_MOTION_DOT":4.995e-5,"MEAN_MOTION_DDOT":0},{"OBJECT_NAME":"STARLINK-2666","OBJECT_ID":"2021-044AE","EPOCH":"2025-11-27T02:19:58.978560","MEAN_MOTION":15.06397633,"ECCENTRICITY":0.00013402,"INCLINATION":53.0537,"RA_OF_ASC_NODE":212.6434,"ARG_OF_PERICENTER":79.7296,"MEAN_ANOMALY":280.3844,"EPHEMERIS_TYPE":0,"CLASSIFICATION_TYPE":"U","NORAD_CAT_ID":48666,"ELEMENT_SET_NO":999,"REV_AT_EPOCH":24837,"BSTAR":-0.00017808562,"MEAN_MOTION_DOT":-2.933e-5,"MEAN_MOTION_DDOT":0},{"OBJECT_NAME":"STARLINK-2735","OBJECT_ID":"2021-044AF","EPOCH":"2025-11-27T01:37:26.660352","MEAN_MOTION":15.06397854,"ECCENTRICITY":0.00014145,"INCLINATION":53.0523,"RA_OF_ASC_NODE":212.3065,"ARG_OF_PERICENTER":88.7044,"MEAN_ANOMALY":271.4107,"EPHEMERIS_TYPE":0,"CLASSIFICATION_TYPE":"U","NORAD_CAT_ID":48667,"ELEMENT_SET_NO":999,"REV_AT_EPOCH":24838,"BSTAR":4.5457961e-5,"MEAN_MOTION_DOT":3.96e-6,"MEAN_MOTION_DDOT":0},{"OBJECT_NAME":"STARLINK-2738","OBJECT_ID":"2021-044AG","EPOCH":"2025-11-27T01:32:08.232288","MEAN_MOTION":15.06395694,"ECCENTRICITY":0.00014657,"INCLINATION":53.0513,"RA_OF_ASC_NODE":212.3195,"ARG_OF_PERICENTER":104.7513,"MEAN_ANOMALY":255.3639,"EPHEMERIS_TYPE":0,"CLASSIFICATION_TYPE":"U","NORAD_CAT_ID":48668,"ELEMENT_SET_NO":999,"REV_AT_EPOCH":24838,"BSTAR":-3.0988798e-5,"MEAN_MOTION_DOT":-7.43e-6,"MEAN_MOTION_DDOT":0},{"OBJECT_NAME":"STARLINK-2707","OBJECT_ID":"2021-044AH","EPOCH":"2025-11-26T23:51:17.416512","MEAN_MOTION":15.06395433,"ECCENTRICITY":0.00013736,"INCLINATION":53.0526,"RA_OF_ASC_NODE":212.6397,"ARG_OF_PERICENTER":85.704,"MEAN_ANOMALY":274.4106,"EPHEMERIS_TYPE":0,"CLASSIFICATION_TYPE":"U","NORAD_CAT_ID":48669,"ELEMENT_SET_NO":999,"REV_AT_EPOCH":24836,"BSTAR":-0.00017492392,"MEAN_MOTION_DOT":-2.886e-5,"MEAN_MOTION_DDOT":0},{"OBJECT_NAME":"STARLINK-2763","OBJECT_ID":"2021-044AJ","EPOCH":"2025-11-27T01:21:30.870720","MEAN_MOTION":15.06388384,"ECCENTRICITY":0.00015753,"INCLINATION":53.0535,"RA_OF_ASC_NODE":212.3569,"ARG_OF_PERICENTER":88.9962,"MEAN_ANOMALY":271.1207,"EPHEMERIS_TYPE":0,"CLASSIFICATION_TYPE":"U","NORAD_CAT_ID":48670,"ELEMENT_SET_NO":999,"REV_AT_EPOCH":24837,"BSTAR":-9.1165715e-5,"MEAN_MOTION_DOT":-1.639e-5,"MEAN_MOTION_DDOT":0},{"OBJECT_NAME":"STARLINK-2745","OBJECT_ID":"2021-044AK","EPOCH":"2025-11-27T01:58:43.113216","MEAN_MOTION":15.06391255,"ECCENTRICITY":0.00013938,"INCLINATION":53.0514,"RA_OF_ASC_NODE":212.5493,"ARG_OF_PERICENTER":97.4732,"MEAN_ANOMALY":262.6415,"EPHEMERIS_TYPE":0,"CLASSIFICATION_TYPE":"U","NORAD_CAT_ID":48671,"ELEMENT_SET_NO":999,"REV_AT_EPOCH":24837,"BSTAR":-4.144489e-5,"MEAN_MOTION_DOT":-8.99e-6,"MEAN_MOTION_DDOT":0},{"OBJECT_NAME":"STARLINK-2705","OBJECT_ID":"2021-044AL","EPOCH":"2025-11-27T01:10:53.811552","MEAN_MOTION":15.06394995,"ECCENTRICITY":0.00014636,"INCLINATION":53.0534,"RA_OF_ASC_NODE":212.3892,"ARG_OF_PERICENTER":91.7796,"MEAN_ANOMALY":268.336,"EPHEMERIS_TYPE":0,"CLASSIFICATION_TYPE":"U","NORAD_CAT_ID":48672,"ELEMENT_SET_NO":999,"REV_AT_EPOCH":24837,"BSTAR":-0.00027209095,"MEAN_MOTION_DOT":-4.331e-5,"MEAN_MOTION_DDOT":0},{"OBJECT_NAME":"STARLINK-2711","OBJECT_ID":"2021-044AM","EPOCH":"2025-11-27T01:05:35.564064","MEAN_MOTION":15.06393181,"ECCENTRICITY":0.00014435,"INCLINATION":53.0527,"RA_OF_ASC_NODE":212.4036,"ARG_OF_PERICENTER":88.9078,"MEAN_ANOMALY":271.2076,"EPHEMERIS_TYPE":0,"CLASSIFICATION_TYPE":"U","NORAD_CAT_ID":48673,"ELEMENT_SET_NO":999,"REV_AT_EPOCH":24837,"BSTAR":-0.00025133566,"MEAN_MOTION_DOT":-4.022e-5,"MEAN_MOTION_DDOT":0},{"OBJECT_NAME":"STARLINK-2712","OBJECT_ID":"2021-044AN","EPOCH":"2025-11-27T02:51:46.210176","MEAN_MOTION":15.06390609,"ECCENTRICITY":0.00012611,"INCLINATION":53.0536,"RA_OF_ASC_NODE":212.1921,"ARG_OF_PERICENTER":91.4913,"MEAN_ANOMALY":268.6221,"EPHEMERIS_TYPE":0,"CLASSIFICATION_TYPE":"U","NORAD_CAT_ID":48674,"ELEMENT_SET_NO":999,"REV_AT_EPOCH":24838,"BSTAR":-0.00018932075,"MEAN_MOTION_DOT":-3.099e-5,"MEAN_MOTION_DDOT":0}]
